NORAD_CAT_ID,OBJECT_NAME,OBJECT_TYPE,EPOCH,MEAN_MOTION,ECCENTRICITY,INCLINATION,RA_OF_ASC_NODE,ARG_OF_PERICENTER,MEAN_ANOMALY,BSTAR,MEAN_MOTION_DOT,MEAN_MOTION_DDOT,TLE_LINE0,TLE_LINE1,TLE_LINE2,SEMIMAJOR_AXIS,PERIOD,APOGEE,PERIGEE,DECAYED
54205.0,STARLINK-5249,PAYLOAD,2024-05-12 07:40:28,15.08765489,0.0001487,53.2161,105.2149,71.9851,288.1303,-0.0013608,-0.00021836,0.0,0 STARLINK-5249,1 54205U 22141BA  24133.31977039 -.00021836  00000-0 -13608-2 0  9990,2 54205  53.2161 105.2149 0001487  71.9851 288.1303 15.08765489 85404,6918.108,95.442,541.002,538.944,0.0
54205.0,STARLINK-5249,PAYLOAD,2024-05-12 15:37:24,15.08785867,0.0001285,53.2164,103.7286,91.0138,269.1002,-0.00074244,-0.00012067,0.0,0 STARLINK-5249,1 54205U 22141BA  24133.65097295 -.00012067  00000-0 -74244-3 0  9994,2 54205  53.2164 103.7286 0001285  91.0138 269.1002 15.08785867 85686,6918.046,95.441,540.8,539.022,0.0
54205.0,STARLINK-5249,PAYLOAD,2024-05-13 04:20:28,15.08830274,0.0001504,53.2166,101.3477,98.7734,261.3429,0.00016198,2.29e-05,0.0,0 STARLINK-5249,1 54205U 22141BA  24134.18088647  .00002290  00000-0  16198-3 0  9993,2 54205  53.2166 101.3477 0001504  98.7734 261.3429 15.08830274 85763,6917.91,95.438,540.816,538.735,0.0
54205.0,STARLINK-5249,PAYLOAD,2024-05-13 07:31:15,15.08830991,0.000152,53.2167,100.7529,99.2035,260.9129,0.00026399,3.915e-05,0.0,0 STARLINK-5249,1 54205U 22141BA  24134.31336862  .00003915  00000-0  26399-3 0  9992,2 54205  53.2167 100.7529 0001520  99.2035 260.9129 15.08830991 85558,6917.908,95.438,540.824,538.721,0.0
54205.0,STARLINK-5249,PAYLOAD,2024-05-14 07:22:02,15.08847042,0.0001473,53.2162,96.2944,91.3525,268.7636,0.0010467,0.00016413,0.0,0 STARLINK-5249,1 54205U 22141BA  24135.30697295  .00016413  00000-0  10467-2 0  9997,2 54205  53.2162  96.2944 0001473  91.3525 268.7636 15.08847042 85933,6917.859,95.437,540.743,538.705,0.0
54205.0,STARLINK-5249,PAYLOAD,2024-05-15 04:02:01,15.08879089,0.0001392,53.2163,92.4289,91.4961,268.619,0.00056879,8.786e-05,0.0,0 STARLINK-5249,1 54205U 22141BA  24136.16806822  .00008786  00000-0  56879-3 0  9992,2 54205  53.2163  92.4289 0001392  91.4961 268.6190 15.08879089 86064,6917.761,95.435,540.589,538.663,0.0
54205.0,STARLINK-5249,PAYLOAD,2024-05-15 07:12:47,15.08880058,0.0001358,53.2161,91.8338,90.2624,269.8524,0.00053935,8.316e-05,0.0,0 STARLINK-5249,1 54205U 22141BA  24136.30054489  .00008316  00000-0  53935-3 0  9991,2 54205  53.2161  91.8338 0001358  90.2624 269.8524 15.08880058 85853,6917.758,95.435,540.562,538.684,0.0
54205.0,STARLINK-5249,PAYLOAD,2024-05-15 21:31:15,15.08854342,0.0001748,53.2165,89.1561,80.4255,279.6934,-5.856e-05,-1.22e-05,0.0,0 STARLINK-5249,1 54205U 22141BA  24136.89670662 -.00001220  00000-0 -58560-4 0  9991,2 54205  53.2165  89.1561 0001748  80.4255 279.6934 15.08854342 86176,6917.837,95.437,540.911,538.492,0.0
54205.0,STARLINK-5249,PAYLOAD,2024-05-16 13:25:06,15.0884781,0.0001396,53.2166,86.1844,78.9945,281.1204,0.00013075,1.794e-05,0.0,0 STARLINK-5249,1 54205U 22141BA  24137.55910548  .00001794  00000-0  13075-3 0  9990,2 54205  53.2166  86.1844 0001396  78.9945 281.1204 15.08847810 86041,6917.857,95.437,540.687,538.756,0.0
54205.0,STARLINK-5249,PAYLOAD,2024-05-17 13:15:53,15.0885471,0.0001527,53.2168,81.7208,64.9165,295.1985,0.00050614,7.78e-05,0.0,0 STARLINK-5249,1 54205U 22141BA  24138.55269862  .00007780  00000-0  50614-3 0  9998,2 54205  53.2168  81.7208 0001527  64.9165 295.1985 15.08854710 86197,6917.835,95.437,540.757,538.644,0.0
54205.0,STARLINK-5249,PAYLOAD,2024-05-17 19:37:26,15.08831412,0.0002359,53.2165,80.5343,76.2564,283.8691,-0.00027511,-4.663e-05,0.0,0 STARLINK-5249,1 54205U 22141BA  24138.81766483 -.00004663  00000-0 -27511-3 0  9997,2 54205  53.2165  80.5343 0002359  76.2564 283.8691 15.08831412 86466,6917.907,95.438,541.404,538.14,0.0
54205.0,STARLINK-5249,PAYLOAD,2024-05-18 13:06:41,15.08826896,0.0001423,53.2159,77.2618,94.7364,265.3791,0.00036575,5.536e-05,0.0,0 STARLINK-5249,1 54205U 22141BA  24139.54631231  .00005536  00000-0  36575-3 0  9998,2 54205  53.2159  77.2618 0001423  94.7364 265.3791 15.08826896 86344,6917.92,95.438,540.77,538.801,0.0
54205.0,STARLINK-5249,PAYLOAD,2024-05-19 03:25:10,15.08835856,0.0001445,53.2166,74.5861,96.2565,263.8592,0.00053375,8.216e-05,0.0,0 STARLINK-5249,1 54205U 22141BA  24140.14247738  .00008216  00000-0  53375-3 0  9996,2 54205  53.2166  74.5861 0001445  96.2565 263.8592 15.08835856 86669,6917.893,95.438,540.758,538.758,0.0
54205.0,STARLINK-5249,PAYLOAD,2024-05-19 19:19:02,15.08829533,0.0001819,53.2167,71.6138,88.7349,271.3852,0.00026658,3.956e-05,0.0,0 STARLINK-5249,1 54205U 22141BA  24140.80488789  .00003956  00000-0  26658-3 0  9992,2 54205  53.2167  71.6138 0001819  88.7349 271.3852 15.08829533 86765,6917.912,95.438,541.036,538.519,0.0
54205.0,STARLINK-5249,PAYLOAD,2024-05-20 01:40:34,15.0883957,0.000174,53.2173,70.4228,98.5796,261.5393,0.00058265,8.997e-05,0.0,0 STARLINK-5249,1 54205U 22141BA  24141.06984694  .00008997  00000-0  58265-3 0  9996,2 54205  53.2173  70.4228 0001740  98.5796 261.5393 15.08839570 86805,6917.882,95.438,540.95,538.543,0.0
54205.0,STARLINK-5249,PAYLOAD,2024-05-21 04:42:07,15.08861892,0.000177,53.2166,65.3688,85.0639,275.0555,0.00075421,0.00011743,0.0,0 STARLINK-5249,1 54205U 22141BA  24142.19592214  .00011743  00000-0  75421-3 0  9990,2 54205  53.2166  65.3688 0001770  85.0639 275.0555 15.08861892 86970,6917.813,95.436,540.903,538.454,0.0
54205.0,STARLINK-5249,PAYLOAD,2024-05-21 22:11:21,15.08849408,0.0002232,53.2157,62.0946,115.8793,244.2429,0.00012218,1.657e-05,0.0,0 STARLINK-5249,1 54205U 22141BA  24142.92455886  .00001657  00000-0  12218-3 0  9992,2 54205  53.2157  62.0946 0002232 115.8793 244.2429 15.08849408 86852,6917.852,95.437,541.261,538.173,0.0
54205.0,STARLINK-5249,PAYLOAD,2024-05-22 01:22:08,15.08852864,0.0001606,53.2174,61.4947,93.961,266.1566,0.00025315,3.745e-05,0.0,0 STARLINK-5249,1 54205U 22141BA  24143.05703890  .00003745  00000-0  25315-3 0  9990,2 54205  53.2174  61.4947 0001606  93.9610 266.1566 15.08852864 87107,6917.841,95.437,540.817,538.595,0.0
54205.0,STARLINK-5249,PAYLOAD,2024-05-22 22:02:08,15.08847088,0.0001799,53.2173,57.6352,107.1793,252.9396,4.4034e-05,4.13e-06,0.0,0 STARLINK-5249,1 54205U 22141BA  24143.91815678  .00000413  00000-0  44034-4 0  9992,2 54205  53.2173  57.6352 0001799 107.1793 252.9396 15.08847088 87001,6917.859,95.437,540.968,538.479,0.0
54205.0,STARLINK-5249,PAYLOAD,2024-05-23 01:12:54,15.08850479,0.000188,53.218,57.0407,110.4414,249.678,0.00013455,1.854e-05,0.0,0 STARLINK-5249,1 54205U 22141BA  24144.05063525  .00001854  00000-0  13455-3 0  9996,2 54205  53.2180  57.0407 0001880 110.4414 249.6780 15.08850479 87257,6917.848,95.437,541.014,538.413,0.0
54205.0,STARLINK-5249,PAYLOAD,2024-05-23 18:42:09,15.08842883,0.0001966,53.2188,53.7745,107.7197,252.401,2.6925e-05,1.4e-06,0.0,0 STARLINK-5249,1 54205U 22141BA  24144.77927906  .00000140  00000-0  26925-4 0  9991,2 54205  53.2188  53.7745 0001966 107.7197 252.4010 15.08842883 87365,6917.872,95.437,541.097,538.377,0.0
54205.0,STARLINK-5249,PAYLOAD,2024-05-24 04:14:28,15.08848107,0.0001564,53.2176,51.9842,100.3265,259.7904,0.00013961,1.935e-05,0.0,0 STARLINK-5249,1 54205U 22141BA  24145.17671490  .00001935  00000-0  13961-3 0  9998,2 54205  53.2176  51.9842 0001564 100.3265 259.7904 15.08848107 87197,6917.856,95.437,540.803,538.639,0.0
54205.0,STARLINK-5249,PAYLOAD,2024-05-24 21:43:42,15.08839713,0.0002634,53.2176,48.7137,136.2615,223.8586,-1.4672e-05,-5.22e-06,0.0,0 STARLINK-5249,1 54205U 22141BA  24145.90535700 -.00000522  00000-0 -14672-4 0  9996,2 54205  53.2176  48.7137 0002634 136.2615 223.8586 15.08839713 87308,6917.881,95.438,541.568,537.924,0.0
54205.0,STARLINK-5249,PAYLOAD,2024-05-25 02:29:52,15.08841376,0.000149,53.2178,47.8228,93.4632,266.6531,0.00010691,1.414e-05,0.0,0 STARLINK-5249,1 54205U 22141BA  24146.10408006  .00001414  00000-0  10691-3 0  9992,2 54205  53.2178  47.8228 0001490  93.4632 266.6531 15.08841376 87564,6917.876,95.437,540.772,538.71,0.0
54205.0,STARLINK-5249,PAYLOAD,2024-05-25 10:26:48,15.08835612,0.0001569,53.2173,46.3389,94.3628,265.7543,3.8503e-05,3.25e-06,0.0,0 STARLINK-5249,1 54205U 22141BA  24146.43528420  .00000325  00000-0  38503-4 0  9994,2 54205  53.2173  46.3389 0001569  94.3628 265.7543 15.08835612 87382,6917.894,95.438,540.844,538.673,0.0
54205.0,STARLINK-5249,PAYLOAD,2024-05-26 00:45:16,15.08843107,0.000123,53.2169,43.6629,94.1574,265.9558,0.00021478,3.132e-05,0.0,0 STARLINK-5249,1 54205U 22141BA  24147.03144410  .00003132  00000-0  21478-3 0  9995,2 54205  53.2169  43.6629 0001230  94.1574 265.9558 15.08843107 87473,6917.871,95.437,540.587,538.885,0.0
54205.0,STARLINK-5249,PAYLOAD,2024-05-26 21:25:17,15.08844691,0.0001456,53.2182,39.7895,72.6687,287.4464,0.00018797,2.705e-05,0.0,0 STARLINK-5249,1 54205U 22141BA  24147.89256534  .00002705  00000-0  18797-3 0  9995,2 54205  53.2182  39.7895 0001456  72.6687 287.4464 15.08844691 87839,6917.866,95.437,540.738,538.724,0.0
54205.0,STARLINK-5249,PAYLOAD,2024-05-26 23:00:40,15.0884787,0.0001313,53.2173,39.4976,95.2805,264.8337,0.00025397,3.757e-05,0.0,0 STARLINK-5249,1 54205U 22141BA  24147.95880353  .00003757  00000-0  25397-3 0  9996,2 54205  53.2173  39.4976 0001313  95.2805 264.8337 15.08847870 87617,6917.856,95.437,540.63,538.813,0.0
54205.0,STARLINK-5249,PAYLOAD,2024-05-27 02:11:26,15.08854874,0.0001303,53.2177,38.9033,90.0202,270.094,0.00030204,4.524e-05,0.0,0 STARLINK-5249,1 54205U 22141BA  24148.09127985  .00004524  00000-0  30204-3 0  9993,2 54205  53.2177  38.9033 0001303  90.0202 270.0940 15.08854874 87860,6917.835,95.437,540.601,538.799,0.0
54205.0,STARLINK-5249,PAYLOAD,2024-05-27 10:08:22,15.08847919,6.84e-05,53.2176,37.4151,87.5245,272.5825,0.00018948,2.73e-05,0.0,0 STARLINK-5249,1 54205U 22141BA  24148.42248086  .00002730  00000-0  18948-3 0  9994,2 54205  53.2176  37.4151 0000684  87.5245 272.5825 15.08847919 87910,6917.856,95.437,540.194,539.248,0.0
